[{"OBJECT_NAME":"ONEWEB-0591","OBJECT_ID":"2022-166R","EPOCH":"2026-03-09T22:04:11.670528","MEAN_MOTION":13.21823933,"ECCENTRICITY":0.00016309,"INCLINATION":87.9165,"RA_OF_ASC_NODE":263.7813,"ARG_OF_PERICENTER":88.9424,"MEAN_ANOMALY":271.1897,"EPHEMERIS_TYPE":0,"CLASSIFICATION_TYPE":"U","NORAD_CAT_ID":54657,"ELEMENT_SET_NO":999,"REV_AT_EPOCH":15844,"BSTAR":-0.00019646487,"MEAN_MOTION_DOT":-6.8e-7,"MEAN_MOTION_DDOT":0},{"OBJECT_NAME":"CZ-4C DEB","OBJECT_ID":"2014-080G","EPOCH":"2026-02-26T05:06:46.447776","MEAN_MOTION":13.45278622,"ECCENTRICITY":0.0371866,"INCLINATION":63.3898,"RA_OF_ASC_NODE":248.3633,"ARG_OF_PERICENTER":8.7478,"MEAN_ANOMALY":351.9794,"EPHEMERIS_TYPE":0,"CLASSIFICATION_TYPE":"U","NORAD_CAT_ID":43418,"ELEMENT_SET_NO":999,"REV_AT_EPOCH":53009,"BSTAR":0.0002037,"MEAN_MOTION_DOT":9.2e-7,"MEAN_MOTION_DDOT":0}]
